[{"OBJECT_NAME":"ATLAS 5 CENTAUR R/B","OBJECT_ID":"2009-017B","EPOCH":"2026-03-03T14:34:00.185376","MEAN_MOTION":1.18201885,"ECCENTRICITY":0.8188082,"INCLINATION":20.676,"RA_OF_ASC_NODE":342.5615,"ARG_OF_PERICENTER":7.3234,"MEAN_ANOMALY":359.3849,"EPHEMERIS_TYPE":0,"CLASSIFICATION_TYPE":"U","NORAD_CAT_ID":34714,"ELEMENT_SET_NO":999,"REV_AT_EPOCH":7137,"BSTAR":0.0070929,"MEAN_MOTION_DOT":-2.6e-7,"MEAN_MOTION_DDOT":0},{"OBJECT_NAME":"SES-7 (PROTOSTAR 2)","OBJECT_ID":"2009-027A","EPOCH":"2026-03-03T17:48:38.594304","MEAN_MOTION":1.00268714,"ECCENTRICITY":0.0001457,"INCLINATION":0.0238,"RA_OF_ASC_NODE":125.3887,"ARG_OF_PERICENTER":184.903,"MEAN_ANOMALY":226.6523,"EPHEMERIS_TYPE":0,"CLASSIFICATION_TYPE":"U","NORAD_CAT_ID":34941,"ELEMENT_SET_NO":999,"REV_AT_EPOCH":6157,"BSTAR":0,"MEAN_MOTION_DOT":0,"MEAN_MOTION_DDOT":0},{"OBJECT_NAME":"MEASAT-3A","OBJECT_ID":"2009-032A","EPOCH":"2026-03-03T18:15:36.717696","MEAN_MOTION":1.00271636,"ECCENTRICITY":0.0003541,"INCLINATION":0.0439,"RA_OF_ASC_NODE":344.2292,"ARG_OF_PERICENTER":5.2112,"MEAN_ANOMALY":245.9681,"EPHEMERIS_TYPE":0,"CLASSIFICATION_TYPE":"U","NORAD_CAT_ID":35362,"ELEMENT_SET_NO":999,"REV_AT_EPOCH":697,"BSTAR":0,"MEAN_MOTION_DOT":-1.25e-6,"MEAN_MOTION_DDOT":0},{"OBJECT_NAME":"SL-23 R/B","OBJECT_ID":"2009-032B","EPOCH":"2026-03-03T08:17:54.896064","MEAN_MOTION":1.68695854,"ECCENTRICITY":0.41265313,"INCLINATION":8.0331,"RA_OF_ASC_NODE":187.1479,"ARG_OF_PERICENTER":85.6936,"MEAN_ANOMALY":292.5597,"EPHEMERIS_TYPE":0,"CLASSIFICATION_TYPE":"U","NORAD_CAT_ID":35363,"ELEMENT_SET_NO":999,"REV_AT_EPOCH":10283,"BSTAR":0,"MEAN_MOTION_DOT":-6.1e-7,"MEAN_MOTION_DDOT":0},{"OBJECT_NAME":"GOES 14","OBJECT_ID":"2009-033A","EPOCH":"2026-03-03T16:44:52.913760","MEAN_MOTION":1.00123964,"ECCENTRICITY":0.0002209,"INCLINATION":1.4171,"RA_OF_ASC_NODE":84.4315,"ARG_OF_PERICENTER":297.0894,"MEAN_ANOMALY":233.3639,"EPHEMERIS_TYPE":0,"CLASSIFICATION_TYPE":"U","NORAD_CAT_ID":35491,"ELEMENT_SET_NO":999,"REV_AT_EPOCH":553,"BSTAR":0,"MEAN_MOTION_DOT":1.15e-6,"MEAN_MOTION_DDOT":0},{"OBJECT_NAME":"FM-5","OBJECT_ID":"2009-034A","EPOCH":"2026-03-03T15:22:38.296128","MEAN_MOTION":1.00269986,"ECCENTRICITY":9.38e-5,"INCLINATION":0.0417,"RA_OF_ASC_NODE":276.2891,"ARG_OF_PERICENTER":315.794,"MEAN_ANOMALY":73.8032,"EPHEMERIS_TYPE":0,"CLASSIFICATION_TYPE":"U","NORAD_CAT_ID":35493,"ELEMENT_SET_NO":999,"REV_AT_EPOCH":4558,"BSTAR":0,"MEAN_MOTION_DOT":-2.14e-6,"MEAN_MOTION_DDOT":0},{"OBJECT_NAME":"BREEZE-M R/B","OBJECT_ID":"2009-034B","EPOCH":"2026-03-02T17:43:50.705184","MEAN_MOTION":2.04373157,"ECCENTRICITY":0.60537231,"INCLINATION":23.7169,"RA_OF_ASC_NODE":280.3973,"ARG_OF_PERICENTER":323.5323,"MEAN_ANOMALY":285.577,"EPHEMERIS_TYPE":0,"CLASSIFICATION_TYPE":"U","NORAD_CAT_ID":35494,"ELEMENT_SET_NO":999,"REV_AT_EPOCH":12447,"BSTAR":0,"MEAN_MOTION_DOT":1.08e-6,"MEAN_MOTION_DDOT":0},{"OBJECT_NAME":"TERRESTAR-1","OBJECT_ID":"2009-035A","EPOCH":"2026-03-03T13:32:48.818688","MEAN_MOTION":1.0027152,"ECCENTRICITY":0.0002899,"INCLINATION":5.0935,"RA_OF_ASC_NODE":48.8335,"ARG_OF_PERICENTER":301.5224,"MEAN_ANOMALY":263.1652,"EPHEMERIS_TYPE":0,"CLASSIFICATION_TYPE":"U","NORAD_CAT_ID":35496,"ELEMENT_SET_NO":999,"REV_AT_EPOCH":6107,"BSTAR":0,"MEAN_MOTION_DOT":-6.8e-7,"MEAN_MOTION_DDOT":0},{"OBJECT_NAME":"COSMOS 917 DEB","OBJECT_ID":"1977-047S","EPOCH":"2026-03-02T21:38:19.455648","MEAN_MOTION":2.0176736,"ECCENTRICITY":0.7417361,"INCLINATION":60.1552,"RA_OF_ASC_NODE":237.6637,"ARG_OF_PERICENTER":59.1836,"MEAN_ANOMALY":353.0748,"EPHEMERIS_TYPE":0,"CLASSIFICATION_TYPE":"U","NORAD_CAT_ID":35505,"ELEMENT_SET_NO":999,"REV_AT_EPOCH":14375,"BSTAR":5.5179e-5,"MEAN_MOTION_DOT":-9.67e-6,"MEAN_MOTION_DDOT":0},{"OBJECT_NAME":"COSMOS 1261 DEB","OBJECT_ID":"1981-031N","EPOCH":"2026-03-03T16:50:00.808800","MEAN_MOTION":2.01914388,"ECCENTRICITY":0.7394622,"INCLINATION":62.1932,"RA_OF_ASC_NODE":314.6667,"ARG_OF_PERICENTER":42.0168,"MEAN_ANOMALY":355.3612,"EPHEMERIS_TYPE":0,"CLASSIFICATION_TYPE":"U","NORAD_CAT_ID":35507,"ELEMENT_SET_NO":999,"REV_AT_EPOCH":9629,"BSTAR":0.0032441,"MEAN_MOTION_DOT":-5.81e-6,"MEAN_MOTION_DDOT":0},{"OBJECT_NAME":"CZ-3A DEB","OBJECT_ID":"2007-003J","EPOCH":"2026-03-01T23:24:12.078720","MEAN_MOTION":2.09146684,"ECCENTRICITY":0.73735963,"INCLINATION":24.5647,"RA_OF_ASC_NODE":49.5922,"ARG_OF_PERICENTER":231.0407,"MEAN_ANOMALY":37.19,"EPHEMERIS_TYPE":0,"CLASSIFICATION_TYPE":"U","NORAD_CAT_ID":35550,"ELEMENT_SET_NO":999,"REV_AT_EPOCH":12802,"BSTAR":0.0028399636,"MEAN_MOTION_DOT":5.96e-6,"MEAN_MOTION_DDOT":0},{"OBJECT_NAME":"CZ-3A DEB","OBJECT_ID":"2007-003K","EPOCH":"2026-03-03T17:13:32.155392","MEAN_MOTION":2.16471929,"ECCENTRICITY":0.7234742,"INCLINATION":24.8049,"RA_OF_ASC_NODE":267.7349,"ARG_OF_PERICENTER":75.3526,"MEAN_ANOMALY":349.0115,"EPHEMERIS_TYPE":0,"CLASSIFICATION_TYPE":"U","NORAD_CAT_ID":35551,"ELEMENT_SET_NO":999,"REV_AT_EPOCH":1877,"BSTAR":0.0060935,"MEAN_MOTION_DOT":2.16e-6,"MEAN_MOTION_DDOT":0},{"OBJECT_NAME":"CZ-3A DEB","OBJECT_ID":"2007-003L","EPOCH":"2026-03-03T05:03:52.052832","MEAN_MOTION":2.02648108,"ECCENTRICITY":0.74024671,"INCLINATION":25.8193,"RA_OF_ASC_NODE":89.7949,"ARG_OF_PERICENTER":72.2232,"MEAN_ANOMALY":350.8204,"EPHEMERIS_TYPE":0,"CLASSIFICATION_TYPE":"U","NORAD_CAT_ID":35552,"ELEMENT_SET_NO":999,"REV_AT_EPOCH":12838,"BSTAR":0.0064068885,"MEAN_MOTION_DOT":1.244e-5,"MEAN_MOTION_DDOT":0},{"OBJECT_NAME":"CZ-3A DEB","OBJECT_ID":"2007-003N","EPOCH":"2026-02-27T03:24:45.235008","MEAN_MOTION":1.86112134,"ECCENTRICITY":0.75141706,"INCLINATION":23.5883,"RA_OF_ASC_NODE":259.9372,"ARG_OF_PERICENTER":230.8125,"MEAN_ANOMALY":34.7783,"EPHEMERIS_TYPE":0,"CLASSIFICATION_TYPE":"U","NORAD_CAT_ID":35554,"ELEMENT_SET_NO":999,"REV_AT_EPOCH":8527,"BSTAR":0.0077535635,"MEAN_MOTION_DOT":3.96e-6,"MEAN_MOTION_DDOT":0},{"OBJECT_NAME":"CZ-3A DEB","OBJECT_ID":"2007-003X","EPOCH":"2026-02-27T12:56:46.637952","MEAN_MOTION":1.89953825,"ECCENTRICITY":0.74631375,"INCLINATION":21.9264,"RA_OF_ASC_NODE":199.3958,"ARG_OF_PERICENTER":34.5975,"MEAN_ANOMALY":3.2812,"EPHEMERIS_TYPE":0,"CLASSIFICATION_TYPE":"U","NORAD_CAT_ID":35563,"ELEMENT_SET_NO":999,"REV_AT_EPOCH":1399,"BSTAR":-6.2066679e-5,"MEAN_MOTION_DOT":-4.4e-7,"MEAN_MOTION_DDOT":0},{"OBJECT_NAME":"ASIASAT 5","OBJECT_ID":"2009-042A","EPOCH":"2026-03-03T17:58:38.345088","MEAN_MOTION":1.00271953,"ECCENTRICITY":0.0001473,"INCLINATION":0.0286,"RA_OF_ASC_NODE":236.4529,"ARG_OF_PERICENTER":93.8497,"MEAN_ANOMALY":201.3791,"EPHEMERIS_TYPE":0,"CLASSIFICATION_TYPE":"U","NORAD_CAT_ID":35696,"ELEMENT_SET_NO":999,"REV_AT_EPOCH":6065,"BSTAR":0,"MEAN_MOTION_DOT":-3.21e-6,"MEAN_MOTION_DDOT":0},{"OBJECT_NAME":"JCSAT-12 (JCSAT-RA)","OBJECT_ID":"2009-044A","EPOCH":"2026-03-03T17:24:38.666592","MEAN_MOTION":1.00271122,"ECCENTRICITY":0.0002008,"INCLINATION":0.0218,"RA_OF_ASC_NODE":117.9873,"ARG_OF_PERICENTER":182.6048,"MEAN_ANOMALY":254.0845,"EPHEMERIS_TYPE":0,"CLASSIFICATION_TYPE":"U","NORAD_CAT_ID":35755,"ELEMENT_SET_NO":999,"REV_AT_EPOCH":6055,"BSTAR":0,"MEAN_MOTION_DOT":-3.42e-6,"MEAN_MOTION_DDOT":0}]
