ATLAS 5 CENTAUR R/B     
1 34714U 09017B   26062.60694659 -.00000026  00000+0  70929-2 0  9994
2 34714  20.6760 342.5615 8188082   7.3234 359.3849  1.18201885 71375
SES-7 (PROTOSTAR 2)     
1 34941U 09027A   26062.74211336  .00000000  00000+0  00000+0 0  9990
2 34941   0.0238 125.3887 0001457 184.9030 226.6523  1.00268714 61576
MEASAT-3A               
1 35362U 09032A   26062.76084164 -.00000125  00000+0  00000+0 0  9992
2 35362   0.0439 344.2292 0003541   5.2112 245.9681  1.00271636  6970
SL-23 R/B               
1 35363U 09032B   26062.34577426 -.00000061  00000+0  00000+0 0  9994
2 35363   8.0331 187.1479 4126531  85.6936 292.5597  1.68695854102838
GOES 14                 
1 35491U 09033A   26062.69783465  .00000115  00000+0  00000+0 0  9996
2 35491   1.4171  84.4315 0002209 297.0894 233.3639  1.00123964  5533
FM-5                    
1 35493U 09034A   26062.64072102 -.00000214  00000+0  00000+0 0  9994
2 35493   0.0417 276.2891 0000938 315.7940  73.8032  1.00269986 45588
BREEZE-M R/B            
1 35494U 09034B   26061.73878131  .00000108  00000+0  00000+0 0  9991
2 35494  23.7169 280.3973 6053723 323.5323 285.5770  2.04373157124478
TERRESTAR-1             
1 35496U 09035A   26062.56445392 -.00000068  00000+0  00000+0 0  9991
2 35496   5.0935  48.8335 0002899 301.5224 263.1652  1.00271520 61074
COSMOS 917 DEB          
1 35505U 77047S   26061.90161407 -.00000967  00000+0  55179-4 0  9999
2 35505  60.1552 237.6637 7417361  59.1836 353.0748  2.01767360143756
COSMOS 1261 DEB         
1 35507U 81031N   26062.70139825 -.00000581  00000+0  32441-2 0  9994
2 35507  62.1932 314.6667 7394622  42.0168 355.3612  2.01914388 96299
CZ-3A DEB               
1 35550U 07003J   26060.97513980  .00000596  00000+0  28400-2 0  9999
2 35550  24.5647  49.5922 7373596 231.0407  37.1900  2.09146684128029
CZ-3A DEB               
1 35551U 07003K   26062.71773328  .00000216  00000+0  60935-2 0  9996
2 35551  24.8049 267.7349 7234742  75.3526 349.0115  2.16471929 18770
CZ-3A DEB               
1 35552U 07003L   26062.21101913  .00001244  00000+0  64069-2 0  9991
2 35552  25.8193  89.7949 7402467  72.2232 350.8204  2.02648108128389
CZ-3A DEB               
1 35554U 07003N   26058.14219022  .00000396  00000+0  77536-2 0  9991
2 35554  23.5883 259.9372 7514170 230.8125  34.7783  1.86112134 85277
CZ-3A DEB               
1 35563U 07003X   26058.53942868 -.00000044  00000+0 -62067-4 0  9992
2 35563  21.9264 199.3958 7463137  34.5975   3.2812  1.89953825 13994
ASIASAT 5               
1 35696U 09042A   26062.74905492 -.00000321  00000+0  00000+0 0  9995
2 35696   0.0286 236.4529 0001473  93.8497 201.3791  1.00271953 60651
JCSAT-12 (JCSAT-RA)     
1 35755U 09044A   26062.72544753 -.00000342  00000+0  00000+0 0  9993
2 35755   0.0218 117.9873 0002008 182.6048 254.0845  1.00271122 60553
